SL-14 R/B               
1 16792U 86046B   25351.56444777  .00000477  00000+0  52225-4 0  9996
2 16792  82.4812 157.7574 0024117 136.8513 223.4599 14.85489934114218
SL-14 R/B               
1 16882U 86055B   25351.62852184  .00000410  00000+0  44574-4 0  9993
2 16882  82.5199 203.7791 0017583 241.8410 172.1776 14.85535537107188
AJISAI (EGS)            
1 16908U 86061A   25351.65137714 -.00000093  00000+0  29385-4 0  9998
2 16908  50.0113 345.6142 0011310  78.2476  34.1545 12.44514350457783
COSMOS 1812             
1 17295U 87003A   25351.55599717  .00097299  00000+0  60949-3 0  9992
2 17295  82.4876 286.7984 0007030  79.7169 280.4888 15.76459605131410
SL-14 R/B               
1 17567U 87024B   25351.56029466  .00000463  00000+0  50040-4 0  9996
2 17567  82.5274 169.9259 0018504 168.2296 191.9358 14.86028730 75938
COSMOS 1833             
1 17589U 87027A   25351.60236817  .00000187  00000+0  12573-3 0  9999
2 17589  70.9143 138.5548 0022728 324.9321  35.0302 14.13023761998710
SL-16 R/B               
1 17590U 87027B   25351.60224747  .00000235  00000+0  14056-3 0  9992
2 17590  71.0035  89.4722 0007288 254.2200 105.8120 14.17153874  3711
SL-14 R/B               
1 17912U 87038B   25351.58041680  .00000386  00000+0  41928-4 0  9998
2 17912  82.5012  14.1413 0020856  77.2915 283.0631 14.85265607 67040
COSMOS 1844             
1 17973U 87041A   25351.65354475  .00000138  00000+0  96777-4 0  9993
2 17973  70.8964 207.2073 0029921 149.3184 210.9695 14.14526880991984
SL-14 R/B               
1 18153U 87055B   25351.63879431  .00000412  00000+0  44844-4 0  9994
2 18153  82.4999  66.3716 0019214 285.9855  73.9244 14.85526240 57759
COSMOS 1867             
1 18187U 87060A   25351.63295498 -.00000034  00000+0  25018-4 0  9995
2 18187  65.0086 176.4995 0013626 271.5958  88.3566 14.31486859  8191
SL-14 R/B               
1 18749U 88001B   25351.29191173  .00000421  00000+0  45893-4 0  9994
2 18749  82.5134 272.8658 0018861 146.5817 213.6594 14.85428771 29792
