CCSDS_OMM_VERS = 2.0
CREATION_DATE  = 
ORIGINATOR     = 

OBJECT_NAME    = SL-14 R/B
OBJECT_ID      = 1986-046B
CENTER_NAME    = EARTH
REF_FRAME      = TEME
TIME_SYSTEM    = UTC
MEAN_ELEMENT_THEORY = SGP/SGP4

EPOCH          = 2025-12-17T13:32:48.287328
MEAN_MOTION    = 14.85489934
ECCENTRICITY   = .00241176
INCLINATION    = 82.4812
RA_OF_ASC_NODE = 157.7574
ARG_OF_PERICENTER = 136.8513
MEAN_ANOMALY   = 223.4599

EPHEMERIS_TYPE = 0
CLASSIFICATION_TYPE = U
NORAD_CAT_ID   = 16792
ELEMENT_SET_NO = 999
REV_AT_EPOCH   = 11421
BSTAR          = .52225277E-4
MEAN_MOTION_DOT = .477E-5
MEAN_MOTION_DDOT = 0

CCSDS_OMM_VERS = 2.0
CREATION_DATE  = 
ORIGINATOR     = 

OBJECT_NAME    = SL-14 R/B
OBJECT_ID      = 1986-055B
CENTER_NAME    = EARTH
REF_FRAME      = TEME
TIME_SYSTEM    = UTC
MEAN_ELEMENT_THEORY = SGP/SGP4

EPOCH          = 2025-12-17T15:05:04.286976
MEAN_MOTION    = 14.85535537
ECCENTRICITY   = .00175831
INCLINATION    = 82.5199
RA_OF_ASC_NODE = 203.7791
ARG_OF_PERICENTER = 241.8410
MEAN_ANOMALY   = 172.1776

EPHEMERIS_TYPE = 0
CLASSIFICATION_TYPE = U
NORAD_CAT_ID   = 16882
ELEMENT_SET_NO = 999
REV_AT_EPOCH   = 10718
BSTAR          = .4457442E-4
MEAN_MOTION_DOT = .41E-5
MEAN_MOTION_DDOT = 0

CCSDS_OMM_VERS = 2.0
CREATION_DATE  = 
ORIGINATOR     = 

OBJECT_NAME    = AJISAI (EGS)
OBJECT_ID      = 1986-061A
CENTER_NAME    = EARTH
REF_FRAME      = TEME
TIME_SYSTEM    = UTC
MEAN_ELEMENT_THEORY = SGP/SGP4

EPOCH          = 2025-12-17T15:37:58.984896
MEAN_MOTION    = 12.44514350
ECCENTRICITY   = .00113106
INCLINATION    = 50.0113
RA_OF_ASC_NODE = 345.6142
ARG_OF_PERICENTER = 78.2476
MEAN_ANOMALY   = 34.1545

EPHEMERIS_TYPE = 0
CLASSIFICATION_TYPE = U
NORAD_CAT_ID   = 16908
ELEMENT_SET_NO = 999
REV_AT_EPOCH   = 45778
BSTAR          = .29385187E-4
MEAN_MOTION_DOT = -.93E-6
MEAN_MOTION_DDOT = 0

CCSDS_OMM_VERS = 2.0
CREATION_DATE  = 
ORIGINATOR     = 

OBJECT_NAME    = COSMOS 1812
OBJECT_ID      = 1987-003A
CENTER_NAME    = EARTH
REF_FRAME      = TEME
TIME_SYSTEM    = UTC
MEAN_ELEMENT_THEORY = SGP/SGP4

EPOCH          = 2025-12-17T13:20:38.155488
MEAN_MOTION    = 15.76459605
ECCENTRICITY   = .00070304
INCLINATION    = 82.4876
RA_OF_ASC_NODE = 286.7984
ARG_OF_PERICENTER = 79.7169
MEAN_ANOMALY   = 280.4888

EPHEMERIS_TYPE = 0
CLASSIFICATION_TYPE = U
NORAD_CAT_ID   = 17295
ELEMENT_SET_NO = 999
REV_AT_EPOCH   = 13141
BSTAR          = .60948862E-3
MEAN_MOTION_DOT = .97299E-3
MEAN_MOTION_DDOT = 0

CCSDS_OMM_VERS = 2.0
CREATION_DATE  = 
ORIGINATOR     = 

OBJECT_NAME    = SL-14 R/B
OBJECT_ID      = 1987-024B
CENTER_NAME    = EARTH
REF_FRAME      = TEME
TIME_SYSTEM    = UTC
MEAN_ELEMENT_THEORY = SGP/SGP4

EPOCH          = 2025-12-17T13:26:49.458624
MEAN_MOTION    = 14.86028730
ECCENTRICITY   = .00185047
INCLINATION    = 82.5274
RA_OF_ASC_NODE = 169.9259
ARG_OF_PERICENTER = 168.2296
MEAN_ANOMALY   = 191.9358

EPHEMERIS_TYPE = 0
CLASSIFICATION_TYPE = U
NORAD_CAT_ID   = 17567
ELEMENT_SET_NO = 999
REV_AT_EPOCH   = 7593
BSTAR          = .5004035E-4
MEAN_MOTION_DOT = .463E-5
MEAN_MOTION_DDOT = 0

CCSDS_OMM_VERS = 2.0
CREATION_DATE  = 
ORIGINATOR     = 

OBJECT_NAME    = COSMOS 1833
OBJECT_ID      = 1987-027A
CENTER_NAME    = EARTH
REF_FRAME      = TEME
TIME_SYSTEM    = UTC
MEAN_ELEMENT_THEORY = SGP/SGP4

EPOCH          = 2025-12-17T14:27:24.609888
MEAN_MOTION    = 14.13023761
ECCENTRICITY   = .00227285
INCLINATION    = 70.9143
RA_OF_ASC_NODE = 138.5548
ARG_OF_PERICENTER = 324.9321
MEAN_ANOMALY   = 35.0302

EPHEMERIS_TYPE = 0
CLASSIFICATION_TYPE = U
NORAD_CAT_ID   = 17589
ELEMENT_SET_NO = 999
REV_AT_EPOCH   = 99871
BSTAR          = .12572674E-3
MEAN_MOTION_DOT = .187E-5
MEAN_MOTION_DDOT = 0

CCSDS_OMM_VERS = 2.0
CREATION_DATE  = 
ORIGINATOR     = 

OBJECT_NAME    = SL-16 R/B
OBJECT_ID      = 1987-027B
CENTER_NAME    = EARTH
REF_FRAME      = TEME
TIME_SYSTEM    = UTC
MEAN_ELEMENT_THEORY = SGP/SGP4

EPOCH          = 2025-12-17T14:27:14.181408
MEAN_MOTION    = 14.17153874
ECCENTRICITY   = .0007288
INCLINATION    = 71.0035
RA_OF_ASC_NODE = 89.4722
ARG_OF_PERICENTER = 254.2200
MEAN_ANOMALY   = 105.8120

EPHEMERIS_TYPE = 0
CLASSIFICATION_TYPE = U
NORAD_CAT_ID   = 17590
ELEMENT_SET_NO = 999
REV_AT_EPOCH   = 371
BSTAR          = .14055638E-3
MEAN_MOTION_DOT = .235E-5
MEAN_MOTION_DDOT = 0

CCSDS_OMM_VERS = 2.0
CREATION_DATE  = 
ORIGINATOR     = 

OBJECT_NAME    = SL-14 R/B
OBJECT_ID      = 1987-038B
CENTER_NAME    = EARTH
REF_FRAME      = TEME
TIME_SYSTEM    = UTC
MEAN_ELEMENT_THEORY = SGP/SGP4

EPOCH          = 2025-12-17T13:55:48.011520
MEAN_MOTION    = 14.85265607
ECCENTRICITY   = .00208569
INCLINATION    = 82.5012
RA_OF_ASC_NODE = 14.1413
ARG_OF_PERICENTER = 77.2915
MEAN_ANOMALY   = 283.0631

EPHEMERIS_TYPE = 0
CLASSIFICATION_TYPE = U
NORAD_CAT_ID   = 17912
ELEMENT_SET_NO = 999
REV_AT_EPOCH   = 6704
BSTAR          = .41928436E-4
MEAN_MOTION_DOT = .386E-5
MEAN_MOTION_DDOT = 0

CCSDS_OMM_VERS = 2.0
CREATION_DATE  = 
ORIGINATOR     = 

OBJECT_NAME    = COSMOS 1844
OBJECT_ID      = 1987-041A
CENTER_NAME    = EARTH
REF_FRAME      = TEME
TIME_SYSTEM    = UTC
MEAN_ELEMENT_THEORY = SGP/SGP4

EPOCH          = 2025-12-17T15:41:06.266400
MEAN_MOTION    = 14.14526880
ECCENTRICITY   = .00299215
INCLINATION    = 70.8964
RA_OF_ASC_NODE = 207.2073
ARG_OF_PERICENTER = 149.3184
MEAN_ANOMALY   = 210.9695

EPHEMERIS_TYPE = 0
CLASSIFICATION_TYPE = U
NORAD_CAT_ID   = 17973
ELEMENT_SET_NO = 999
REV_AT_EPOCH   = 99198
BSTAR          = .96777439E-4
MEAN_MOTION_DOT = .138E-5
MEAN_MOTION_DDOT = 0

CCSDS_OMM_VERS = 2.0
CREATION_DATE  = 
ORIGINATOR     = 

OBJECT_NAME    = SL-14 R/B
OBJECT_ID      = 1987-055B
CENTER_NAME    = EARTH
REF_FRAME      = TEME
TIME_SYSTEM    = UTC
MEAN_ELEMENT_THEORY = SGP/SGP4

EPOCH          = 2025-12-17T15:19:51.828384
MEAN_MOTION    = 14.85526240
ECCENTRICITY   = .00192146
INCLINATION    = 82.4999
RA_OF_ASC_NODE = 66.3716
ARG_OF_PERICENTER = 285.9855
MEAN_ANOMALY   = 73.9244

EPHEMERIS_TYPE = 0
CLASSIFICATION_TYPE = U
NORAD_CAT_ID   = 18153
ELEMENT_SET_NO = 999
REV_AT_EPOCH   = 5775
BSTAR          = .44843649E-4
MEAN_MOTION_DOT = .412E-5
MEAN_MOTION_DDOT = 0

CCSDS_OMM_VERS = 2.0
CREATION_DATE  = 
ORIGINATOR     = 

OBJECT_NAME    = COSMOS 1867
OBJECT_ID      = 1987-060A
CENTER_NAME    = EARTH
REF_FRAME      = TEME
TIME_SYSTEM    = UTC
MEAN_ELEMENT_THEORY = SGP/SGP4

EPOCH          = 2025-12-17T15:11:27.310272
MEAN_MOTION    = 14.31486859
ECCENTRICITY   = .00136264
INCLINATION    = 65.0086
RA_OF_ASC_NODE = 176.4995
ARG_OF_PERICENTER = 271.5958
MEAN_ANOMALY   = 88.3566

EPHEMERIS_TYPE = 0
CLASSIFICATION_TYPE = U
NORAD_CAT_ID   = 18187
ELEMENT_SET_NO = 999
REV_AT_EPOCH   = 819
BSTAR          = .25018171E-4
MEAN_MOTION_DOT = -.34E-6
MEAN_MOTION_DDOT = 0

CCSDS_OMM_VERS = 2.0
CREATION_DATE  = 
ORIGINATOR     = 

OBJECT_NAME    = SL-14 R/B
OBJECT_ID      = 1988-001B
CENTER_NAME    = EARTH
REF_FRAME      = TEME
TIME_SYSTEM    = UTC
MEAN_ELEMENT_THEORY = SGP/SGP4

EPOCH          = 2025-12-17T07:00:21.173472
MEAN_MOTION    = 14.85428771
ECCENTRICITY   = .00188613
INCLINATION    = 82.5134
RA_OF_ASC_NODE = 272.8658
ARG_OF_PERICENTER = 146.5817
MEAN_ANOMALY   = 213.6594

EPHEMERIS_TYPE = 0
CLASSIFICATION_TYPE = U
NORAD_CAT_ID   = 18749
ELEMENT_SET_NO = 999
REV_AT_EPOCH   = 2979
BSTAR          = .45893111E-4
MEAN_MOTION_DOT = .421E-5
MEAN_MOTION_DDOT = 0

